<?xml version="1.0" encoding="UTF-8"?>
<gpx version="1.1" creator="OpenCane build_routes.py" xmlns="http://www.topografix.com/GPX/1/1">
  <trk><name>cif_isr</name><trkseg>
      <trkpt lat="40.112424" lon="-88.22788"/>
      <trkpt lat="40.112425" lon="-88.22783"/>
      <trkpt lat="40.112426" lon="-88.227769"/>
      <trkpt lat="40.112413" lon="-88.227769"/>
      <trkpt lat="40.112413" lon="-88.227685"/>
      <trkpt lat="40.112306" lon="-88.227662"/>
      <trkpt lat="40.112195" lon="-88.22766"/>
      <trkpt lat="40.112196" lon="-88.227557"/>
      <trkpt lat="40.112187" lon="-88.22749"/>
      <trkpt lat="40.112168" lon="-88.227453"/>
      <trkpt lat="40.112093" lon="-88.227365"/>
      <trkpt lat="40.112058" lon="-88.227315"/>
      <trkpt lat="40.112035" lon="-88.227256"/>
      <trkpt lat="40.112023" lon="-88.227208"/>
      <trkpt lat="40.112009" lon="-88.227164"/>
      <trkpt lat="40.112015" lon="-88.227117"/>
      <trkpt lat="40.112012" lon="-88.227017"/>
      <trkpt lat="40.111987" lon="-88.226921"/>
      <trkpt lat="40.111942" lon="-88.226837"/>
      <trkpt lat="40.111911" lon="-88.226799"/>
      <trkpt lat="40.111875" lon="-88.226768"/>
      <trkpt lat="40.111838" lon="-88.22675"/>
      <trkpt lat="40.11183" lon="-88.226707"/>
      <trkpt lat="40.111714" lon="-88.226703"/>
      <trkpt lat="40.111626" lon="-88.226702"/>
      <trkpt lat="40.111556" lon="-88.226701"/>
      <trkpt lat="40.11153" lon="-88.226699"/>
      <trkpt lat="40.111523" lon="-88.226639"/>
      <trkpt lat="40.111481" lon="-88.226557"/>
      <trkpt lat="40.111448" lon="-88.226518"/>
      <trkpt lat="40.111409" lon="-88.226518"/>
      <trkpt lat="40.111272" lon="-88.226521"/>
      <trkpt lat="40.11118" lon="-88.226521"/>
      <trkpt lat="40.111122" lon="-88.226521"/>
      <trkpt lat="40.111029" lon="-88.226522"/>
      <trkpt lat="40.110794" lon="-88.226519"/>
      <trkpt lat="40.110671" lon="-88.226517"/>
      <trkpt lat="40.110672" lon="-88.226092"/>
      <trkpt lat="40.110672" lon="-88.225928"/>
      <trkpt lat="40.110582" lon="-88.225925"/>
      <trkpt lat="40.110583" lon="-88.225721"/>
      <trkpt lat="40.110583" lon="-88.225695"/>
      <trkpt lat="40.110584" lon="-88.225675"/>
      <trkpt lat="40.110584" lon="-88.225604"/>
      <trkpt lat="40.110584" lon="-88.225533"/>
      <trkpt lat="40.110595" lon="-88.2255"/>
      <trkpt lat="40.110598" lon="-88.225318"/>
      <trkpt lat="40.110612" lon="-88.225269"/>
      <trkpt lat="40.110621" lon="-88.225216"/>
      <trkpt lat="40.110623" lon="-88.225182"/>
      <trkpt lat="40.110624" lon="-88.225152"/>
      <trkpt lat="40.110629" lon="-88.224652"/>
      <trkpt lat="40.110631" lon="-88.224427"/>
      <trkpt lat="40.110626" lon="-88.224384"/>
      <trkpt lat="40.11062" lon="-88.224363"/>
      <trkpt lat="40.110614" lon="-88.224348"/>
      <trkpt lat="40.110609" lon="-88.224334"/>
      <trkpt lat="40.110612" lon="-88.224096"/>
      <trkpt lat="40.110591" lon="-88.224068"/>
      <trkpt lat="40.110499" lon="-88.223949"/>
      <trkpt lat="40.110409" lon="-88.223829"/>
      <trkpt lat="40.110391" lon="-88.223804"/>
      <trkpt lat="40.110399" lon="-88.223787"/>
      <trkpt lat="40.110405" lon="-88.223762"/>
      <trkpt lat="40.11041" lon="-88.223489"/>
      <trkpt lat="40.110392" lon="-88.22341"/>
      <trkpt lat="40.110375" lon="-88.223338"/>
      <trkpt lat="40.110376" lon="-88.223257"/>
      <trkpt lat="40.110377" lon="-88.223143"/>
      <trkpt lat="40.110405" lon="-88.223064"/>
      <trkpt lat="40.110416" lon="-88.222974"/>
      <trkpt lat="40.110418" lon="-88.222827"/>
      <trkpt lat="40.110418" lon="-88.222798"/>
      <trkpt lat="40.110419" lon="-88.222773"/>
      <trkpt lat="40.110419" lon="-88.222681"/>
      <trkpt lat="40.110423" lon="-88.222398"/>
      <trkpt lat="40.110425" lon="-88.22227"/>
      <trkpt lat="40.11037" lon="-88.222269"/>
      <trkpt lat="40.110305" lon="-88.222267"/>
      <trkpt lat="40.109823" lon="-88.222259"/>
      <trkpt lat="40.10962" lon="-88.222259"/>
      <trkpt lat="40.109621" lon="-88.222159"/>
      <trkpt lat="40.109624" lon="-88.222029"/>
      <trkpt lat="40.109566" lon="-88.222047"/>
      <trkpt lat="40.109546" lon="-88.222078"/>
      <trkpt lat="40.109287" lon="-88.222071"/>
      <trkpt lat="40.109291" lon="-88.221839"/>
      <trkpt lat="40.109293" lon="-88.221672"/>
      <trkpt lat="40.109294" lon="-88.221354"/>
      <trkpt lat="40.109352" lon="-88.221354"/>
      <trkpt lat="40.10949" lon="-88.221355"/>
  </trkseg></trk>
</gpx>
