<?xml version="1.0" encoding="UTF-8"?>
<gpx version="1.1" creator="OpenCane build_routes.py" xmlns="http://www.topografix.com/GPX/1/1">
  <trk><name>isr_union_wrong_turn</name><trkseg>
      <trkpt lat="40.10949" lon="-88.221355"/>
      <trkpt lat="40.109352" lon="-88.221354"/>
      <trkpt lat="40.109294" lon="-88.221354"/>
      <trkpt lat="40.109293" lon="-88.221672"/>
      <trkpt lat="40.109291" lon="-88.221839"/>
      <trkpt lat="40.109287" lon="-88.222071"/>
      <trkpt lat="40.1092713" lon="-88.2226586"/>
      <trkpt lat="40.109287" lon="-88.222071"/>
      <trkpt lat="40.109187" lon="-88.22207"/>
      <trkpt lat="40.109172" lon="-88.2221"/>
      <trkpt lat="40.109128" lon="-88.222099"/>
      <trkpt lat="40.109127" lon="-88.22214"/>
      <trkpt lat="40.109126" lon="-88.222241"/>
      <trkpt lat="40.109125" lon="-88.222376"/>
      <trkpt lat="40.109123" lon="-88.222608"/>
      <trkpt lat="40.109121" lon="-88.222808"/>
      <trkpt lat="40.109117" lon="-88.223767"/>
      <trkpt lat="40.109116" lon="-88.223814"/>
      <trkpt lat="40.109115" lon="-88.223906"/>
      <trkpt lat="40.109114" lon="-88.223974"/>
      <trkpt lat="40.109113" lon="-88.22403"/>
      <trkpt lat="40.109056" lon="-88.224029"/>
      <trkpt lat="40.109052" lon="-88.224336"/>
      <trkpt lat="40.108955" lon="-88.224335"/>
      <trkpt lat="40.108952" lon="-88.224554"/>
      <trkpt lat="40.108951" lon="-88.22465"/>
      <trkpt lat="40.108948" lon="-88.224807"/>
      <trkpt lat="40.108951" lon="-88.225159"/>
      <trkpt lat="40.10895" lon="-88.225194"/>
      <trkpt lat="40.108948" lon="-88.225382"/>
      <trkpt lat="40.108947" lon="-88.225461"/>
      <trkpt lat="40.108946" lon="-88.225487"/>
      <trkpt lat="40.108946" lon="-88.225557"/>
      <trkpt lat="40.108941" lon="-88.225673"/>
      <trkpt lat="40.108981" lon="-88.225716"/>
      <trkpt lat="40.109014" lon="-88.225747"/>
      <trkpt lat="40.10904" lon="-88.225784"/>
      <trkpt lat="40.109041" lon="-88.22587"/>
      <trkpt lat="40.109038" lon="-88.22601"/>
      <trkpt lat="40.109038" lon="-88.226152"/>
      <trkpt lat="40.109034" lon="-88.226307"/>
      <trkpt lat="40.109234" lon="-88.226309"/>
      <trkpt lat="40.109454" lon="-88.226311"/>
      <trkpt lat="40.109454" lon="-88.226413"/>
      <trkpt lat="40.109424" lon="-88.226457"/>
      <trkpt lat="40.109397" lon="-88.226494"/>
      <trkpt lat="40.109397" lon="-88.226637"/>
      <trkpt lat="40.109511" lon="-88.226633"/>
      <trkpt lat="40.109558" lon="-88.226634"/>
      <trkpt lat="40.109584" lon="-88.226644"/>
      <trkpt lat="40.109596" lon="-88.226657"/>
      <trkpt lat="40.109614" lon="-88.226673"/>
      <trkpt lat="40.109637" lon="-88.226707"/>
      <trkpt lat="40.109926" lon="-88.226717"/>
      <trkpt lat="40.109929" lon="-88.226737"/>
      <trkpt lat="40.109934" lon="-88.226754"/>
      <trkpt lat="40.109952" lon="-88.226778"/>
      <trkpt lat="40.10997" lon="-88.226805"/>
      <trkpt lat="40.109988" lon="-88.226846"/>
      <trkpt lat="40.109949" lon="-88.226885"/>
      <trkpt lat="40.109912" lon="-88.226945"/>
      <trkpt lat="40.109888" lon="-88.227007"/>
      <trkpt lat="40.109874" lon="-88.227064"/>
      <trkpt lat="40.109869" lon="-88.227127"/>
      <trkpt lat="40.109867" lon="-88.227232"/>
      <trkpt lat="40.109852" lon="-88.227231"/>
  </trkseg></trk>
</gpx>
