<?xml version="1.0" encoding="UTF-8"?>
<gpx version="1.1" creator="OpenCane build_routes.py" xmlns="http://www.topografix.com/GPX/1/1">
  <trk><name>isr_grainger</name><trkseg>
      <trkpt lat="40.10949" lon="-88.221355"/>
      <trkpt lat="40.109352" lon="-88.221354"/>
      <trkpt lat="40.109294" lon="-88.221354"/>
      <trkpt lat="40.109293" lon="-88.221672"/>
      <trkpt lat="40.109291" lon="-88.221839"/>
      <trkpt lat="40.109287" lon="-88.222071"/>
      <trkpt lat="40.109546" lon="-88.222078"/>
      <trkpt lat="40.109566" lon="-88.222047"/>
      <trkpt lat="40.109624" lon="-88.222029"/>
      <trkpt lat="40.109621" lon="-88.222159"/>
      <trkpt lat="40.10962" lon="-88.222259"/>
      <trkpt lat="40.109823" lon="-88.222259"/>
      <trkpt lat="40.110305" lon="-88.222267"/>
      <trkpt lat="40.11037" lon="-88.222269"/>
      <trkpt lat="40.110425" lon="-88.22227"/>
      <trkpt lat="40.110423" lon="-88.222398"/>
      <trkpt lat="40.110419" lon="-88.222681"/>
      <trkpt lat="40.110419" lon="-88.222773"/>
      <trkpt lat="40.110418" lon="-88.222798"/>
      <trkpt lat="40.110418" lon="-88.222827"/>
      <trkpt lat="40.110416" lon="-88.222974"/>
      <trkpt lat="40.110405" lon="-88.223064"/>
      <trkpt lat="40.110377" lon="-88.223143"/>
      <trkpt lat="40.110376" lon="-88.223257"/>
      <trkpt lat="40.110375" lon="-88.223338"/>
      <trkpt lat="40.110392" lon="-88.22341"/>
      <trkpt lat="40.11041" lon="-88.223489"/>
      <trkpt lat="40.110405" lon="-88.223762"/>
      <trkpt lat="40.110399" lon="-88.223787"/>
      <trkpt lat="40.110391" lon="-88.223804"/>
      <trkpt lat="40.110409" lon="-88.223829"/>
      <trkpt lat="40.110499" lon="-88.223949"/>
      <trkpt lat="40.110591" lon="-88.224068"/>
      <trkpt lat="40.110612" lon="-88.224096"/>
      <trkpt lat="40.110609" lon="-88.224334"/>
      <trkpt lat="40.110614" lon="-88.224348"/>
      <trkpt lat="40.11062" lon="-88.224363"/>
      <trkpt lat="40.110626" lon="-88.224384"/>
      <trkpt lat="40.110631" lon="-88.224427"/>
      <trkpt lat="40.110629" lon="-88.224652"/>
      <trkpt lat="40.110624" lon="-88.225152"/>
      <trkpt lat="40.110623" lon="-88.225182"/>
      <trkpt lat="40.110621" lon="-88.225216"/>
      <trkpt lat="40.110612" lon="-88.225269"/>
      <trkpt lat="40.110598" lon="-88.225318"/>
      <trkpt lat="40.110595" lon="-88.2255"/>
      <trkpt lat="40.110785" lon="-88.225503"/>
      <trkpt lat="40.110995" lon="-88.225504"/>
      <trkpt lat="40.111194" lon="-88.225507"/>
      <trkpt lat="40.11124" lon="-88.225509"/>
      <trkpt lat="40.111299" lon="-88.22551"/>
      <trkpt lat="40.111331" lon="-88.225529"/>
      <trkpt lat="40.111442" lon="-88.225531"/>
      <trkpt lat="40.111463" lon="-88.225537"/>
      <trkpt lat="40.111481" lon="-88.225537"/>
      <trkpt lat="40.111694" lon="-88.225541"/>
      <trkpt lat="40.112025" lon="-88.225545"/>
      <trkpt lat="40.112068" lon="-88.225546"/>
      <trkpt lat="40.11218" lon="-88.225547"/>
      <trkpt lat="40.112206" lon="-88.225616"/>
      <trkpt lat="40.112222" lon="-88.225699"/>
      <trkpt lat="40.112223" lon="-88.22573"/>
      <trkpt lat="40.112321" lon="-88.225727"/>
      <trkpt lat="40.112667" lon="-88.225738"/>
      <trkpt lat="40.112658" lon="-88.227161"/>
      <trkpt lat="40.112657" lon="-88.227289"/>
      <trkpt lat="40.112561" lon="-88.227283"/>
  </trkseg></trk>
</gpx>
